{
  "norad_id": 65941,
  "name": "YOTSUBA-KULOVER",
  "history": [
    {
      "epoch": "2026-03-28T20:48:00.414144",
      "apogee_km": 302.1859363753738,
      "perigee_km": 294.37265990998276,
      "latitude_deg": 32.57258921375966,
      "longitude_deg": 137.30046016024426,
      "semi_major_axis_km": 6676.416298142678,
      "eccentricity": 0.00058514,
      "inclination_deg": 51.6181,
      "raan_deg": 317.0969,
      "arg_perigee_deg": 214.9932,
      "mean_anomaly_deg": 145.069,
      "mean_motion_rev_day": 15.91430397
    },
    {
      "epoch": "2026-03-28T23:48:50.751648",
      "apogee_km": 301.9454467955111,
      "perigee_km": 294.04891528617554,
      "latitude_deg": 22.423789480714625,
      "longitude_deg": 149.3563907200005,
      "semi_major_axis_km": 6676.134181040843,
      "eccentricity": 0.0005914,
      "inclination_deg": 51.6182,
      "raan_deg": 316.4343,
      "arg_perigee_deg": 215.2444,
      "mean_anomaly_deg": 144.8172,
      "mean_motion_rev_day": 15.91531273
    }
  ]
}